STARLINK-33558          
1 63643U 25083K   25360.21967551  .00023579  00000+0  86303-3 0  9990
2 63643  43.0031  59.8697 0001665 266.3490  93.7171 15.27602400 38834
STARLINK-33852          
1 63644U 25083L   25360.58513364  .00023567  00000+0  86266-3 0  9995
2 63644  42.9989  58.3118 0000856 274.2509  85.8244 15.27600460 38913
STARLINK-33835          
1 63645U 25083M   25360.57228634  .00035700  00000+0  12993-2 0  9995
2 63645  43.0007  58.2059 0000440 341.7094  18.3742 15.27613055 38916
STARLINK-33661          
1 63646U 25083N   25360.55814571  .00036707  00000+0  13359-2 0  9990
2 63646  43.0053  58.1012 0002165 278.9722  81.0885 15.27602150 38910
STARLINK-33729          
1 63647U 25083P   25360.59155732  .00029596  00000+0  10798-2 0  9994
2 63647  43.0008  58.3597 0001482 272.8570  87.2112 15.27608330 38889
STARLINK-33717          
1 63648U 25083Q   25360.48378768  .00021901  00000+0  80270-3 0  9994
2 63648  42.9915  58.4143 0003906  59.3315 300.7921 15.27589384 38878
STARLINK-33684          
1 63649U 25083R   25360.47605735  .00032582  00000+0  11880-2 0  9998
2 63649  43.0022  58.3508 0003074 282.0626  77.9882 15.27587065 38873
STARLINK-33704          
1 63650U 25083S   25360.43251618  .00025469  00000+0  93152-3 0  9992
2 63650  43.0020  58.8804 0000810 142.4076 217.6832 15.27592207 38861
STARLINK-33705          
1 63651U 25083T   25359.57863463  .00042880  00000+0  15569-2 0  9994
2 63651  43.0040  63.6502 0002006 282.1881  77.8746 15.27617337 38769
STARLINK-33663          
1 63652U 25083U   25359.63631147  .00025067  00000+0  91683-3 0  9994
2 63652  43.0021  63.2154 0000520 208.1097 151.9727 15.27598557 38747
STARLINK-33866          
1 63653U 25083V   25359.53637587  .00036027  00000+0  13107-2 0  9990
2 63653  42.9997  64.1934 0001568 255.4921 104.5757 15.27619614 38754
STARLINK-33849          
1 63654U 25083W   25360.44921994  .00026422  00000+0  96562-3 0  9996
2 63654  42.9995  59.0038 0000623 136.1932 223.8969 15.27601791 38868
STARLINK-33873          
1 63655U 25083X   25360.45050538  .00020933  00000+0  76767-3 0  9991
2 63655  43.0052  59.0168 0001720 275.9649  84.1006 15.27596323 38892
STARLINK-33772          
1 63656U 25083Y   25360.56456805  .00030048  00000+0  10957-2 0  9997
2 63656  43.0066  58.1548 0002909 286.2305  73.8227 15.27616539 38919
STARLINK-33789          
1 63657U 25083Z   25360.22992642  .00039648  00000+0  14415-2 0  9993
2 63657  43.0031  59.9381 0001596 269.2762  90.7907 15.27603420 38867
STARLINK-33822          
1 63658U 25083AA  25360.44793627  .00028511  00000+0  10414-2 0  9992
2 63658  42.9986  58.9931 0001387 280.7100  79.3595 15.27585086 38893
