[{"OBJECT_NAME":"STARLINK-33558","OBJECT_ID":"2025-083K","EPOCH":"2025-12-26T05:16:19.964064","MEAN_MOTION":15.276024,"ECCENTRICITY":0.00016657,"INCLINATION":43.0031,"RA_OF_ASC_NODE":59.8697,"ARG_OF_PERICENTER":266.349,"MEAN_ANOMALY":93.7171,"EPHEMERIS_TYPE":0,"CLASSIFICATION_TYPE":"U","NORAD_CAT_ID":63643,"ELEMENT_SET_NO":999,"REV_AT_EPOCH":3883,"BSTAR":0.00086302869,"MEAN_MOTION_DOT":0.00023579,"MEAN_MOTION_DDOT":0},{"OBJECT_NAME":"STARLINK-33852","OBJECT_ID":"2025-083L","EPOCH":"2025-12-26T14:02:35.546496","MEAN_MOTION":15.2760046,"ECCENTRICITY":8.563e-5,"INCLINATION":42.9989,"RA_OF_ASC_NODE":58.3118,"ARG_OF_PERICENTER":274.2509,"MEAN_ANOMALY":85.8244,"EPHEMERIS_TYPE":0,"CLASSIFICATION_TYPE":"U","NORAD_CAT_ID":63644,"ELEMENT_SET_NO":999,"REV_AT_EPOCH":3891,"BSTAR":0.00086266374,"MEAN_MOTION_DOT":0.00023567,"MEAN_MOTION_DDOT":0},{"OBJECT_NAME":"STARLINK-33835","OBJECT_ID":"2025-083M","EPOCH":"2025-12-26T13:44:05.539776","MEAN_MOTION":15.27613055,"ECCENTRICITY":4.405e-5,"INCLINATION":43.0007,"RA_OF_ASC_NODE":58.2059,"ARG_OF_PERICENTER":341.7094,"MEAN_ANOMALY":18.3742,"EPHEMERIS_TYPE":0,"CLASSIFICATION_TYPE":"U","NORAD_CAT_ID":63645,"ELEMENT_SET_NO":999,"REV_AT_EPOCH":3891,"BSTAR":0.0012992636,"MEAN_MOTION_DOT":0.000357,"MEAN_MOTION_DDOT":0},{"OBJECT_NAME":"STARLINK-33661","OBJECT_ID":"2025-083N","EPOCH":"2025-12-26T13:23:43.789344","MEAN_MOTION":15.2760215,"ECCENTRICITY":0.00021658,"INCLINATION":43.0053,"RA_OF_ASC_NODE":58.1012,"ARG_OF_PERICENTER":278.9722,"MEAN_ANOMALY":81.0885,"EPHEMERIS_TYPE":0,"CLASSIFICATION_TYPE":"U","NORAD_CAT_ID":63646,"ELEMENT_SET_NO":999,"REV_AT_EPOCH":3891,"BSTAR":0.001335885,"MEAN_MOTION_DOT":0.00036707,"MEAN_MOTION_DDOT":0},{"OBJECT_NAME":"STARLINK-33729","OBJECT_ID":"2025-083P","EPOCH":"2025-12-26T14:11:50.552448","MEAN_MOTION":15.2760833,"ECCENTRICITY":0.00014823,"INCLINATION":43.0008,"RA_OF_ASC_NODE":58.3597,"ARG_OF_PERICENTER":272.857,"MEAN_ANOMALY":87.2112,"EPHEMERIS_TYPE":0,"CLASSIFICATION_TYPE":"U","NORAD_CAT_ID":63647,"ELEMENT_SET_NO":999,"REV_AT_EPOCH":3888,"BSTAR":0.0010797866,"MEAN_MOTION_DOT":0.00029596,"MEAN_MOTION_DDOT":0},{"OBJECT_NAME":"STARLINK-33717","OBJECT_ID":"2025-083Q","EPOCH":"2025-12-26T11:36:39.255552","MEAN_MOTION":15.27589384,"ECCENTRICITY":0.00039066,"INCLINATION":42.9915,"RA_OF_ASC_NODE":58.4143,"ARG_OF_PERICENTER":59.3315,"MEAN_ANOMALY":300.7921,"EPHEMERIS_TYPE":0,"CLASSIFICATION_TYPE":"U","NORAD_CAT_ID":63648,"ELEMENT_SET_NO":999,"REV_AT_EPOCH":3887,"BSTAR":0.00080269909,"MEAN_MOTION_DOT":0.00021901,"MEAN_MOTION_DDOT":0},{"OBJECT_NAME":"STARLINK-33684","OBJECT_ID":"2025-083R","EPOCH":"2025-12-26T11:25:31.355040","MEAN_MOTION":15.27587065,"ECCENTRICITY":0.00030748,"INCLINATION":43.0022,"RA_OF_ASC_NODE":58.3508,"ARG_OF_PERICENTER":282.0626,"MEAN_ANOMALY":77.9882,"EPHEMERIS_TYPE":0,"CLASSIFICATION_TYPE":"U","NORAD_CAT_ID":63649,"ELEMENT_SET_NO":999,"REV_AT_EPOCH":3887,"BSTAR":0.0011879653,"MEAN_MOTION_DOT":0.00032582,"MEAN_MOTION_DDOT":0},{"OBJECT_NAME":"STARLINK-33704","OBJECT_ID":"2025-083S","EPOCH":"2025-12-26T10:22:49.397952","MEAN_MOTION":15.27592207,"ECCENTRICITY":8.101e-5,"INCLINATION":43.002,"RA_OF_ASC_NODE":58.8804,"ARG_OF_PERICENTER":142.4076,"MEAN_ANOMALY":217.6832,"EPHEMERIS_TYPE":0,"CLASSIFICATION_TYPE":"U","NORAD_CAT_ID":63650,"ELEMENT_SET_NO":999,"REV_AT_EPOCH":3886,"BSTAR":0.00093152001,"MEAN_MOTION_DOT":0.00025469,"MEAN_MOTION_DDOT":0},{"OBJECT_NAME":"STARLINK-33705","OBJECT_ID":"2025-083T","EPOCH":"2025-12-25T13:53:14.032032","MEAN_MOTION":15.27617337,"ECCENTRICITY":0.0002006,"INCLINATION":43.004,"RA_OF_ASC_NODE":63.6502,"ARG_OF_PERICENTER":282.1881,"MEAN_ANOMALY":77.8746,"EPHEMERIS_TYPE":0,"CLASSIFICATION_TYPE":"U","NORAD_CAT_ID":63651,"ELEMENT_SET_NO":999,"REV_AT_EPOCH":3876,"BSTAR":0.0015569,"MEAN_MOTION_DOT":0.0004288,"MEAN_MOTION_DDOT":0},{"OBJECT_NAME":"STARLINK-33663","OBJECT_ID":"2025-083U","EPOCH":"2025-12-25T15:16:17.311008","MEAN_MOTION":15.27598557,"ECCENTRICITY":5.2e-5,"INCLINATION":43.0021,"RA_OF_ASC_NODE":63.2154,"ARG_OF_PERICENTER":208.1097,"MEAN_ANOMALY":151.9727,"EPHEMERIS_TYPE":0,"CLASSIFICATION_TYPE":"U","NORAD_CAT_ID":63652,"ELEMENT_SET_NO":999,"REV_AT_EPOCH":3874,"BSTAR":0.00091683,"MEAN_MOTION_DOT":0.00025067,"MEAN_MOTION_DDOT":0},{"OBJECT_NAME":"STARLINK-33866","OBJECT_ID":"2025-083V","EPOCH":"2025-12-25T12:52:22.875168","MEAN_MOTION":15.27619614,"ECCENTRICITY":0.0001568,"INCLINATION":42.9997,"RA_OF_ASC_NODE":64.1934,"ARG_OF_PERICENTER":255.4921,"MEAN_ANOMALY":104.5757,"EPHEMERIS_TYPE":0,"CLASSIFICATION_TYPE":"U","NORAD_CAT_ID":63653,"ELEMENT_SET_NO":999,"REV_AT_EPOCH":3875,"BSTAR":0.0013107,"MEAN_MOTION_DOT":0.00036027,"MEAN_MOTION_DDOT":0},{"OBJECT_NAME":"STARLINK-33849","OBJECT_ID":"2025-083W","EPOCH":"2025-12-26T10:46:52.602816","MEAN_MOTION":15.27601791,"ECCENTRICITY":6.234e-5,"INCLINATION":42.9995,"RA_OF_ASC_NODE":59.0038,"ARG_OF_PERICENTER":136.1932,"MEAN_ANOMALY":223.8969,"EPHEMERIS_TYPE":0,"CLASSIFICATION_TYPE":"U","NORAD_CAT_ID":63654,"ELEMENT_SET_NO":999,"REV_AT_EPOCH":3886,"BSTAR":0.00096561719,"MEAN_MOTION_DOT":0.00026422,"MEAN_MOTION_DDOT":0},{"OBJECT_NAME":"STARLINK-33873","OBJECT_ID":"2025-083X","EPOCH":"2025-12-26T10:48:43.664832","MEAN_MOTION":15.27596323,"ECCENTRICITY":0.00017202,"INCLINATION":43.0052,"RA_OF_ASC_NODE":59.0168,"ARG_OF_PERICENTER":275.9649,"MEAN_ANOMALY":84.1006,"EPHEMERIS_TYPE":0,"CLASSIFICATION_TYPE":"U","NORAD_CAT_ID":63655,"ELEMENT_SET_NO":999,"REV_AT_EPOCH":3889,"BSTAR":0.00076767204,"MEAN_MOTION_DOT":0.00020933,"MEAN_MOTION_DDOT":0},{"OBJECT_NAME":"STARLINK-33772","OBJECT_ID":"2025-083Y","EPOCH":"2025-12-26T13:32:58.679520","MEAN_MOTION":15.27616539,"ECCENTRICITY":0.00029092,"INCLINATION":43.0066,"RA_OF_ASC_NODE":58.1548,"ARG_OF_PERICENTER":286.2305,"MEAN_ANOMALY":73.8227,"EPHEMERIS_TYPE":0,"CLASSIFICATION_TYPE":"U","NORAD_CAT_ID":63656,"ELEMENT_SET_NO":999,"REV_AT_EPOCH":3891,"BSTAR":0.001095704,"MEAN_MOTION_DOT":0.00030048,"MEAN_MOTION_DDOT":0},{"OBJECT_NAME":"STARLINK-33789","OBJECT_ID":"2025-083Z","EPOCH":"2025-12-26T05:31:05.642688","MEAN_MOTION":15.2760342,"ECCENTRICITY":0.00015965,"INCLINATION":43.0031,"RA_OF_ASC_NODE":59.9381,"ARG_OF_PERICENTER":269.2762,"MEAN_ANOMALY":90.7907,"EPHEMERIS_TYPE":0,"CLASSIFICATION_TYPE":"U","NORAD_CAT_ID":63657,"ELEMENT_SET_NO":999,"REV_AT_EPOCH":3886,"BSTAR":0.001441526,"MEAN_MOTION_DOT":0.00039648,"MEAN_MOTION_DDOT":0},{"OBJECT_NAME":"STARLINK-33822","OBJECT_ID":"2025-083AA","EPOCH":"2025-12-26T10:45:01.693728","MEAN_MOTION":15.27585086,"ECCENTRICITY":0.00013871,"INCLINATION":42.9986,"RA_OF_ASC_NODE":58.9931,"ARG_OF_PERICENTER":280.71,"MEAN_ANOMALY":79.3595,"EPHEMERIS_TYPE":0,"CLASSIFICATION_TYPE":"U","NORAD_CAT_ID":63658,"ELEMENT_SET_NO":999,"REV_AT_EPOCH":3889,"BSTAR":0.001041425,"MEAN_MOTION_DOT":0.00028511,"MEAN_MOTION_DDOT":0}]
